{
    "links": {
        "self": "http://www.neowsapp.com/rest/v1/neo/3879301?api_key=iIulBulltgU6a56xZRHN4H3l9WmuAYTsLGpBGhQ2"
    },
    "id": "3879301",
    "neo_reference_id": "3879301",
    "name": "(2019 UW2)",
    "designation": "2019 UW2",
    "nasa_jpl_url": "http://ssd.jpl.nasa.gov/sbdb.cgi?sstr=3879301",
    "absolute_magnitude_h": 22.3,
    "estimated_diameter": {
        "kilometers": {
            "estimated_diameter_min": 0.0921626549,
            "estimated_diameter_max": 0.2060819612
        },
        "meters": {
            "estimated_diameter_min": 92.1626548503,
            "estimated_diameter_max": 206.0819612321
        },
        "miles": {
            "estimated_diameter_min": 0.057267201,
            "estimated_diameter_max": 0.1280533543
        },
        "feet": {
            "estimated_diameter_min": 302.370924539,
            "estimated_diameter_max": 676.1219416887
        }
    },
    "is_potentially_hazardous_asteroid": false,
    "close_approach_data": [
        {
            "close_approach_date": "2019-10-27",
            "close_approach_date_full": "2019-Oct-27 04:26",
            "epoch_date_close_approach": 1572150360000,
            "relative_velocity": {
                "kilometers_per_second": "20.6398805968",
                "kilometers_per_hour": "74303.5701484112",
                "miles_per_hour": "46169.3489069392"
            },
            "miss_distance": {
                "astronomical": "0.2608741586",
                "lunar": "101.4800476954",
                "kilometers": "39026218.464602182",
                "miles": "24249767.6772348316"
            },
            "orbiting_body": "Earth"
        },
        {
            "close_approach_date": "2020-03-28",
            "close_approach_date_full": "2020-Mar-28 19:23",
            "epoch_date_close_approach": 1585423380000,
            "relative_velocity": {
                "kilometers_per_second": "19.9840330669",
                "kilometers_per_hour": "71942.5190407972",
                "miles_per_hour": "44702.283567322"
            },
            "miss_distance": {
                "astronomical": "0.3864780985",
                "lunar": "150.3399803165",
                "kilometers": "57816300.337250195",
                "miles": "35925383.147414891"
            },
            "orbiting_body": "Earth"
        }
    ],
    "orbital_data": {
        "orbit_id": "3",
        "orbit_determination_date": "2019-10-29 06:39:47",
        "first_observation_date": "2019-10-19",
        "last_observation_date": "2019-10-29",
        "data_arc_in_days": 10,
        "observations_used": 32,
        "orbit_uncertainty": "9",
        "minimum_orbit_intersection": ".257681",
        "jupiter_tisserand_invariant": "3.902",
        "epoch_osculation": "2458778.5",
        "eccentricity": ".4157179968157926",
        "semi_major_axis": "1.686341372400606",
        "inclination": "37.93026280185741",
        "ascending_node_longitude": "23.69109655292946",
        "orbital_period": "799.8649554790337",
        "perihelion_distance": ".9852989151186314",
        "perihelion_argument": "80.45216823340975",
        "aphelion_distance": "2.38738382968258",
        "perihelion_time": "2458852.345009077338",
        "mean_anomaly": "326.7641355134498",
        "mean_motion": ".4500759753681151",
        "equinox": "J2000",
        "orbit_class": {
            "orbit_class_type": "APO",
            "orbit_class_description": "Near-Earth asteroid orbits which cross the Earth’s orbit similar to that of 1862 Apollo",
            "orbit_class_range": "a (semi-major axis) > 1.0 AU; q (perihelion) < 1.017 AU"
        }
    },
    "is_sentry_object": false
}